{
  "norad_id": 64456,
  "name": "STARLINK-34430",
  "history": [
    {
      "epoch": "2026-03-28T22:29:15.216288Z",
      "apogee_km": 476.05796370606004,
      "perigee_km": 474.44412788903446,
      "latitude_deg": -5.8784682161108395e-05,
      "longitude_deg": -164.79601221166843,
      "height_km": 475.9346748561944,
      "semi_major_axis_km": 6853.3880457975465,
      "eccentricity": 0.00011774,
      "inclination_deg": 53.1614,
      "raan_deg": 358.8677,
      "arg_perigee_deg": 74.5627,
      "mean_anomaly_deg": 285.5503,
      "mean_motion_rev_day": 15.30187951
    },
    {
      "epoch": "2026-03-29T01:37:21.706176Z",
      "apogee_km": 476.0560592191332,
      "perigee_km": 474.40439771707224,
      "latitude_deg": 9.06981931993361e-07,
      "longitude_deg": 147.44193560495057,
      "height_km": 476.0393928733417,
      "semi_major_axis_km": 6853.367228468102,
      "eccentricity": 0.0001205,
      "inclination_deg": 53.1614,
      "raan_deg": 358.2614,
      "arg_perigee_deg": 83.8021,
      "mean_anomaly_deg": 276.3117,
      "mean_motion_rev_day": 15.30194923
    },
    {
      "epoch": "2026-03-30T02:42:12.649824Z",
      "apogee_km": 475.9275346168115,
      "perigee_km": 474.47174884737524,
      "latitude_deg": 2.5266185579085355e-05,
      "longitude_deg": 125.34485657544555,
      "height_km": 475.7871456537902,
      "semi_major_axis_km": 6853.336641732093,
      "eccentricity": 0.00010621,
      "inclination_deg": 53.1609,
      "raan_deg": 353.4066,
      "arg_perigee_deg": 64.6983,
      "mean_anomaly_deg": 295.4128,
      "mean_motion_rev_day": 15.30205167
    },
    {
      "epoch": "2026-03-30T16:48:41.749344Z",
      "apogee_km": 476.09407881153675,
      "perigee_km": 474.279729841106,
      "latitude_deg": 2.589762573367086e-05,
      "longitude_deg": -89.58568866311693,
      "height_km": 475.8191087049837,
      "semi_major_axis_km": 6853.323904326321,
      "eccentricity": 0.00013237,
      "inclination_deg": 53.16,
      "raan_deg": 350.6767,
      "arg_perigee_deg": 72.9571,
      "mean_anomaly_deg": 287.1575,
      "mean_motion_rev_day": 15.30209433
    },
    {
      "epoch": "2026-03-31T21:01:39.317664Z",
      "apogee_km": 475.88514456062785,
      "perigee_km": 474.48843717205,
      "latitude_deg": 4.589328256370824e-05,
      "longitude_deg": -159.4451297727406,
      "height_km": 476.24542262461637,
      "semi_major_axis_km": 6853.323790866339,
      "eccentricity": 0.0001019,
      "inclination_deg": 53.1605,
      "raan_deg": 345.2159,
      "arg_perigee_deg": 103.2559,
      "mean_anomaly_deg": 256.8556,
      "mean_motion_rev_day": 15.30209471
    },
    {
      "epoch": "2026-04-01T09:34:04.897056Z",
      "apogee_km": 476.25446553681377,
      "perigee_km": 474.11759941528817,
      "latitude_deg": 1.3026606347129836e-05,
      "longitude_deg": 9.50604808860897,
      "height_km": 476.22474473384074,
      "semi_major_axis_km": 6853.323032476051,
      "eccentricity": 0.0001559,
      "inclination_deg": 53.1594,
      "raan_deg": 342.7887,
      "arg_perigee_deg": 97.588,
      "mean_anomaly_deg": 262.5298,
      "mean_motion_rev_day": 15.30209725
    },
    {
      "epoch": "2026-04-02T16:55:08.109408Z",
      "apogee_km": 476.16460619057943,
      "perigee_km": 474.11410590484957,
      "latitude_deg": -3.9358719327074466e-05,
      "longitude_deg": -108.11050990380036,
      "height_km": 476.2766585143166,
      "semi_major_axis_km": 6853.276356047714,
      "eccentricity": 0.0001496,
      "inclination_deg": 53.1604,
      "raan_deg": 336.7231,
      "arg_perigee_deg": 103.5051,
      "mean_anomaly_deg": 256.6116,
      "mean_motion_rev_day": 15.30225358
    },
    {
      "epoch": "2026-04-02T23:11:20.709024Z",
      "apogee_km": 475.99257575470983,
      "perigee_km": 474.2655527065235,
      "latitude_deg": -2.0484360520012693e-06,
      "longitude_deg": 156.36351308532434,
      "height_km": 476.00014380578904,
      "semi_major_axis_km": 6853.266064230616,
      "eccentricity": 0.000126,
      "inclination_deg": 53.1588,
      "raan_deg": 335.5071,
      "arg_perigee_deg": 88.2153,
      "mean_anomaly_deg": 271.8992,
      "mean_motion_rev_day": 15.30228805
    },
    {
      "epoch": "2026-04-03T19:34:03.218592Z",
      "apogee_km": 476.19507099381735,
      "perigee_km": 474.3213527428916,
      "latitude_deg": -5.7989881991305054e-05,
      "longitude_deg": -154.09396605994758,
      "height_km": 475.81850548235644,
      "semi_major_axis_km": 6853.395211868354,
      "eccentricity": 0.0001367,
      "inclination_deg": 53.1574,
      "raan_deg": 331.5637,
      "arg_perigee_deg": 68.8844,
      "mean_anomaly_deg": 291.2302,
      "mean_motion_rev_day": 15.30185551
    },
    {
      "epoch": "2026-04-04T19:04:50.605824Z",
      "apogee_km": 476.1675445722158,
      "perigee_km": 474.0978571225605,
      "latitude_deg": -4.073734881934063e-05,
      "longitude_deg": -152.31025207115977,
      "height_km": 476.46928747016494,
      "semi_major_axis_km": 6853.269700847388,
      "eccentricity": 0.000151,
      "inclination_deg": 53.1571,
      "raan_deg": 327.0105,
      "arg_perigee_deg": 115.0981,
      "mean_anomaly_deg": 245.0176,
      "mean_motion_rev_day": 15.30227587
    },
    {
      "epoch": "2026-04-04T22:12:57.042144Z",
      "apogee_km": 475.907356896133,
      "perigee_km": 474.75076596360486,
      "latitude_deg": 1.1678166643763981e-05,
      "longitude_deg": 159.93461400773566,
      "height_km": 476.1688266146808,
      "semi_major_axis_km": 6853.466061429868,
      "eccentricity": 8.438e-05,
      "inclination_deg": 53.1579,
      "raan_deg": 326.4109,
      "arg_perigee_deg": 84.1795,
      "mean_anomaly_deg": 275.9302,
      "mean_motion_rev_day": 15.30161823
    },
    {
      "epoch": "2026-04-05T18:35:39.830784Z",
      "apogee_km": 475.9542457689977,
      "perigee_km": 474.4958503251737,
      "latitude_deg": 3.591540379949476e-05,
      "longitude_deg": -150.52987279976992,
      "height_km": 476.10134560285974,
      "semi_major_axis_km": 6853.362048047085,
      "eccentricity": 0.0001064,
      "inclination_deg": 53.1577,
      "raan_deg": 322.4616,
      "arg_perigee_deg": 88.2865,
      "mean_anomaly_deg": 271.8258,
      "mean_motion_rev_day": 15.30196658
    },
    {
      "epoch": "2026-04-06T00:51:52.508160Z",
      "apogee_km": 475.8959658003869,
      "perigee_km": 474.50446421225206,
      "latitude_deg": 3.6421189302735084e-05,
      "longitude_deg": 113.94459720580058,
      "height_km": 475.988568339457,
      "semi_major_axis_km": 6853.337215006319,
      "eccentricity": 0.00010152,
      "inclination_deg": 53.1586,
      "raan_deg": 321.2464,
      "arg_perigee_deg": 80.9089,
      "mean_anomaly_deg": 279.2027,
      "mean_motion_rev_day": 15.30204975
    },
    {
      "epoch": "2026-04-06T22:48:36.341568Z",
      "apogee_km": 475.65574822832605,
      "perigee_km": 474.60103068488934,
      "latitude_deg": 3.717630828447327e-05,
      "longitude_deg": 139.61588625803319,
      "height_km": 475.98009308446564,
      "semi_major_axis_km": 6853.265389456607,
      "eccentricity": 7.695e-05,
      "inclination_deg": 53.1592,
      "raan_deg": 317.0016,
      "arg_perigee_deg": 84.8906,
      "mean_anomaly_deg": 275.2183,
      "mean_motion_rev_day": 15.30229031
    },
    {
      "epoch": "2026-04-07T20:45:21.167712Z",
      "apogee_km": 476.16267127655465,
      "perigee_km": 474.19165812278607,
      "latitude_deg": -4.000723098299062e-05,
      "longitude_deg": 165.2771691265502,
      "height_km": 476.0747789873367,
      "semi_major_axis_km": 6853.31416469967,
      "eccentricity": 0.0001438,
      "inclination_deg": 53.1591,
      "raan_deg": 312.751,
      "arg_perigee_deg": 89.9917,
      "mean_anomaly_deg": 270.1248,
      "mean_motion_rev_day": 15.30212695
    },
    {
      "epoch": "2026-04-07T22:19:24.339648Z",
      "apogee_km": 475.8285239697416,
      "perigee_km": 474.5196786156166,
      "latitude_deg": 3.2106193339541175e-05,
      "longitude_deg": 141.3986293651563,
      "height_km": 475.9641549308357,
      "semi_major_axis_km": 6853.311101292678,
      "eccentricity": 9.549e-05,
      "inclination_deg": 53.1593,
      "raan_deg": 312.45,
      "arg_perigee_deg": 80.4662,
      "mean_anomaly_deg": 279.6447,
      "mean_motion_rev_day": 15.30213721
    },
    {
      "epoch": "2026-04-09T19:46:55.600032Z",
      "apogee_km": 475.7302717871744,
      "perigee_km": 474.5789187991659,
      "latitude_deg": -3.120173358224748e-05,
      "longitude_deg": 168.8507031174916,
      "height_km": 476.21054961085565,
      "semi_major_axis_km": 6853.29159529317,
      "eccentricity": 8.4e-05,
      "inclination_deg": 53.1612,
      "raan_deg": 303.6493,
      "arg_perigee_deg": 105.839,
      "mean_anomaly_deg": 254.2703,
      "mean_motion_rev_day": 15.30220254
    },
    {
      "epoch": "2026-04-10T06:45:18.595008Z",
      "apogee_km": 475.91316013135565,
      "perigee_km": 474.63568424226014,
      "latitude_deg": 4.851383738830983e-05,
      "longitude_deg": 1.6810016032960708,
      "height_km": 476.20426948315946,
      "semi_major_axis_km": 6853.411422186808,
      "eccentricity": 9.32e-05,
      "inclination_deg": 53.1605,
      "raan_deg": 301.526,
      "arg_perigee_deg": 92.8067,
      "mean_anomaly_deg": 267.3041,
      "mean_motion_rev_day": 15.30180122
    },
    {
      "epoch": "2026-04-11T20:22:36.215328Z",
      "apogee_km": 475.88862080320087,
      "perigee_km": 474.55632772140416,
      "latitude_deg": -3.14556585232347e-05,
      "longitude_deg": 148.53265837154103,
      "height_km": 476.04627785277546,
      "semi_major_axis_km": 6853.359474262303,
      "eccentricity": 9.72e-05,
      "inclination_deg": 53.1609,
      "raan_deg": 294.2462,
      "arg_perigee_deg": 83.5542,
      "mean_anomaly_deg": 276.5569,
      "mean_motion_rev_day": 15.3019752
    }
  ]
}